ONEWEB-0422             
1 51626U 22012E   25323.26388507  .00000025  00000+0  30013-4 0  9998
2 51626  87.9140  47.5893 0002408 107.2582 252.8814 13.17647610186164
ONEWEB-0423             
1 51627U 22012F   25323.25713449 -.00000217  00000+0 -59234-3 0  9995
2 51627  87.9138  47.6007 0001786 106.1449 253.9880 13.17649643186059
ONEWEB-0425             
1 51628U 22012G   25323.27718743 -.00000548  00000+0 -16074-2 0  9991
2 51628  87.8809  78.1038 0001314 111.1792 248.9476 13.10372174181832
ONEWEB-0428             
1 51629U 22012H   25323.25729726  .00001225  00000+0  34716-2 0  9997
2 51629  87.8804  78.1273 0001732 103.2200 256.9121 13.10368454181796
ONEWEB-0431             
1 51630U 22012J   25323.07456173  .00000479  00000+0  13367-2 0  9991
2 51630  87.8813  78.1413 0002029  85.6621 274.4738 13.10376678181824
ONEWEB-0434             
1 51631U 22012K   25323.28051029 -.00000688  00000+0 -20085-2 0  9995
2 51631  87.8803  78.1379 0001183 122.3066 237.8176 13.10374088181830
ONEWEB-0435             
1 51632U 22012L   25323.28881462 -.00000506  00000+0 -14851-2 0  9991
2 51632  87.8804  78.1268 0001972 105.0283 255.1062 13.10375728181822
ONEWEB-0436             
1 51633U 22012M   25323.24869813  .00000033  00000+0  50895-4 0  9997
2 51633  87.9141  47.5808 0001934 100.7352 259.3998 13.17647602186037
ONEWEB-0438             
1 51634U 22012N   25323.27221491 -.00000561  00000+0 -16449-2 0  9998
2 51634  87.8802  78.1311 0001430 106.4909 253.6376 13.10371445181856
ONEWEB-0439             
1 51635U 22012P   25323.27553444 -.00000596  00000+0 -17447-2 0  9992
2 51635  87.8800  78.1192 0001608 104.5422 255.5884 13.10372132181835
ONEWEB-0442             
1 51636U 22012Q   25323.24110147 -.00000088  00000+0 -26039-3 0  9993
2 51636  87.9131  47.6322 0001130 105.0402 255.0855 13.17649558186029
ONEWEB-0443             
1 51637U 22012R   25323.26050781 -.00000136  00000+0 -38254-3 0  9999
2 51637  87.9132  47.6344 0001694 113.5792 246.5518 13.17649358186070
ONEWEB-0444             
1 51638U 22012S   25323.26558360 -.00000443  00000+0 -13053-2 0  9996
2 51638  87.8799  78.1200 0001601 103.8976 256.2329 13.10371463181843
ONEWEB-0445             
1 51639U 22012T   25323.28716417 -.00000325  00000+0 -96644-3 0  9995
2 51639  87.8821  78.0793 0001428  95.8092 264.3198 13.10377051181856
ONEWEB-0446             
1 51640U 22012U   25323.26393452 -.00000290  00000+0 -86603-3 0  9990
2 51640  87.8802  78.1371 0001470  95.5291 264.6004 13.10364825181837
ONEWEB-0448             
1 51641U 22012V   25323.26891230 -.00000536  00000+0 -15721-2 0  9993
2 51641  87.8801  78.1356 0001580 106.3683 253.7618 13.10365837181809
