[{"OBJECT_NAME":"ONEWEB-0422","OBJECT_ID":"2022-012E","EPOCH":"2025-11-19T06:19:59.670048","MEAN_MOTION":13.1764761,"ECCENTRICITY":0.00024087,"INCLINATION":87.914,"RA_OF_ASC_NODE":47.5893,"ARG_OF_PERICENTER":107.2582,"MEAN_ANOMALY":252.8814,"EPHEMERIS_TYPE":0,"CLASSIFICATION_TYPE":"U","NORAD_CAT_ID":51626,"ELEMENT_SET_NO":999,"REV_AT_EPOCH":18616,"BSTAR":3.0012874e-5,"MEAN_MOTION_DOT":2.5e-7,"MEAN_MOTION_DDOT":0},{"OBJECT_NAME":"ONEWEB-0423","OBJECT_ID":"2022-012F","EPOCH":"2025-11-19T06:10:16.419936","MEAN_MOTION":13.17649643,"ECCENTRICITY":0.00017867,"INCLINATION":87.9138,"RA_OF_ASC_NODE":47.6007,"ARG_OF_PERICENTER":106.1449,"MEAN_ANOMALY":253.988,"EPHEMERIS_TYPE":0,"CLASSIFICATION_TYPE":"U","NORAD_CAT_ID":51627,"ELEMENT_SET_NO":999,"REV_AT_EPOCH":18605,"BSTAR":-0.00059234287,"MEAN_MOTION_DOT":-2.17e-6,"MEAN_MOTION_DDOT":0},{"OBJECT_NAME":"ONEWEB-0425","OBJECT_ID":"2022-012G","EPOCH":"2025-11-19T06:39:08.993952","MEAN_MOTION":13.10372174,"ECCENTRICITY":0.00013148,"INCLINATION":87.8809,"RA_OF_ASC_NODE":78.1038,"ARG_OF_PERICENTER":111.1792,"MEAN_ANOMALY":248.9476,"EPHEMERIS_TYPE":0,"CLASSIFICATION_TYPE":"U","NORAD_CAT_ID":51628,"ELEMENT_SET_NO":999,"REV_AT_EPOCH":18183,"BSTAR":-0.0016073789,"MEAN_MOTION_DOT":-5.48e-6,"MEAN_MOTION_DDOT":0},{"OBJECT_NAME":"ONEWEB-0428","OBJECT_ID":"2022-012H","EPOCH":"2025-11-19T06:10:30.483264","MEAN_MOTION":13.10368454,"ECCENTRICITY":0.00017323,"INCLINATION":87.8804,"RA_OF_ASC_NODE":78.1273,"ARG_OF_PERICENTER":103.22,"MEAN_ANOMALY":256.9121,"EPHEMERIS_TYPE":0,"CLASSIFICATION_TYPE":"U","NORAD_CAT_ID":51629,"ELEMENT_SET_NO":999,"REV_AT_EPOCH":18179,"BSTAR":0.0034715778,"MEAN_MOTION_DOT":1.225e-5,"MEAN_MOTION_DDOT":0},{"OBJECT_NAME":"ONEWEB-0431","OBJECT_ID":"2022-012J","EPOCH":"2025-11-19T01:47:22.133472","MEAN_MOTION":13.10376678,"ECCENTRICITY":0.00020297,"INCLINATION":87.8813,"RA_OF_ASC_NODE":78.1413,"ARG_OF_PERICENTER":85.6621,"MEAN_ANOMALY":274.4738,"EPHEMERIS_TYPE":0,"CLASSIFICATION_TYPE":"U","NORAD_CAT_ID":51630,"ELEMENT_SET_NO":999,"REV_AT_EPOCH":18182,"BSTAR":0.0013367101,"MEAN_MOTION_DOT":4.79e-6,"MEAN_MOTION_DDOT":0},{"OBJECT_NAME":"ONEWEB-0434","OBJECT_ID":"2022-012K","EPOCH":"2025-11-19T06:43:56.089056","MEAN_MOTION":13.10374088,"ECCENTRICITY":0.00011834,"INCLINATION":87.8803,"RA_OF_ASC_NODE":78.1379,"ARG_OF_PERICENTER":122.3066,"MEAN_ANOMALY":237.8176,"EPHEMERIS_TYPE":0,"CLASSIFICATION_TYPE":"U","NORAD_CAT_ID":51631,"ELEMENT_SET_NO":999,"REV_AT_EPOCH":18183,"BSTAR":-0.0020085212,"MEAN_MOTION_DOT":-6.88e-6,"MEAN_MOTION_DDOT":0},{"OBJECT_NAME":"ONEWEB-0435","OBJECT_ID":"2022-012L","EPOCH":"2025-11-19T06:55:53.583168","MEAN_MOTION":13.10375728,"ECCENTRICITY":0.00019723,"INCLINATION":87.8804,"RA_OF_ASC_NODE":78.1268,"ARG_OF_PERICENTER":105.0283,"MEAN_ANOMALY":255.1062,"EPHEMERIS_TYPE":0,"CLASSIFICATION_TYPE":"U","NORAD_CAT_ID":51632,"ELEMENT_SET_NO":999,"REV_AT_EPOCH":18182,"BSTAR":-0.0014851061,"MEAN_MOTION_DOT":-5.06e-6,"MEAN_MOTION_DDOT":0},{"OBJECT_NAME":"ONEWEB-0436","OBJECT_ID":"2022-012M","EPOCH":"2025-11-19T05:58:07.518432","MEAN_MOTION":13.17647602,"ECCENTRICITY":0.00019345,"INCLINATION":87.9141,"RA_OF_ASC_NODE":47.5808,"ARG_OF_PERICENTER":100.7352,"MEAN_ANOMALY":259.3998,"EPHEMERIS_TYPE":0,"CLASSIFICATION_TYPE":"U","NORAD_CAT_ID":51633,"ELEMENT_SET_NO":999,"REV_AT_EPOCH":18603,"BSTAR":5.0895012e-5,"MEAN_MOTION_DOT":3.3e-7,"MEAN_MOTION_DDOT":0},{"OBJECT_NAME":"ONEWEB-0438","OBJECT_ID":"2022-012N","EPOCH":"2025-11-19T06:31:59.368224","MEAN_MOTION":13.10371445,"ECCENTRICITY":0.00014306,"INCLINATION":87.8802,"RA_OF_ASC_NODE":78.1311,"ARG_OF_PERICENTER":106.4909,"MEAN_ANOMALY":253.6376,"EPHEMERIS_TYPE":0,"CLASSIFICATION_TYPE":"U","NORAD_CAT_ID":51634,"ELEMENT_SET_NO":999,"REV_AT_EPOCH":18185,"BSTAR":-0.0016448934,"MEAN_MOTION_DOT":-5.61e-6,"MEAN_MOTION_DDOT":0},{"OBJECT_NAME":"ONEWEB-0439","OBJECT_ID":"2022-012P","EPOCH":"2025-11-19T06:36:46.175616","MEAN_MOTION":13.10372132,"ECCENTRICITY":0.00016087,"INCLINATION":87.88,"RA_OF_ASC_NODE":78.1192,"ARG_OF_PERICENTER":104.5422,"MEAN_ANOMALY":255.5884,"EPHEMERIS_TYPE":0,"CLASSIFICATION_TYPE":"U","NORAD_CAT_ID":51635,"ELEMENT_SET_NO":999,"REV_AT_EPOCH":18183,"BSTAR":-0.0017446895,"MEAN_MOTION_DOT":-5.96e-6,"MEAN_MOTION_DDOT":0},{"OBJECT_NAME":"ONEWEB-0442","OBJECT_ID":"2022-012Q","EPOCH":"2025-11-19T05:47:11.167008","MEAN_MOTION":13.17649558,"ECCENTRICITY":0.00011309,"INCLINATION":87.9131,"RA_OF_ASC_NODE":47.6322,"ARG_OF_PERICENTER":105.0402,"MEAN_ANOMALY":255.0855,"EPHEMERIS_TYPE":0,"CLASSIFICATION_TYPE":"U","NORAD_CAT_ID":51636,"ELEMENT_SET_NO":999,"REV_AT_EPOCH":18602,"BSTAR":-0.00026038613,"MEAN_MOTION_DOT":-8.8e-7,"MEAN_MOTION_DDOT":0},{"OBJECT_NAME":"ONEWEB-0443","OBJECT_ID":"2022-012R","EPOCH":"2025-11-19T06:15:07.874784","MEAN_MOTION":13.17649358,"ECCENTRICITY":0.0001694,"INCLINATION":87.9132,"RA_OF_ASC_NODE":47.6344,"ARG_OF_PERICENTER":113.5792,"MEAN_ANOMALY":246.5518,"EPHEMERIS_TYPE":0,"CLASSIFICATION_TYPE":"U","NORAD_CAT_ID":51637,"ELEMENT_SET_NO":999,"REV_AT_EPOCH":18607,"BSTAR":-0.0003825385,"MEAN_MOTION_DOT":-1.36e-6,"MEAN_MOTION_DDOT":0},{"OBJECT_NAME":"ONEWEB-0444","OBJECT_ID":"2022-012S","EPOCH":"2025-11-19T06:22:26.423040","MEAN_MOTION":13.10371463,"ECCENTRICITY":0.00016016,"INCLINATION":87.8799,"RA_OF_ASC_NODE":78.12,"ARG_OF_PERICENTER":103.8976,"MEAN_ANOMALY":256.2329,"EPHEMERIS_TYPE":0,"CLASSIFICATION_TYPE":"U","NORAD_CAT_ID":51638,"ELEMENT_SET_NO":999,"REV_AT_EPOCH":18184,"BSTAR":-0.0013053478,"MEAN_MOTION_DOT":-4.43e-6,"MEAN_MOTION_DDOT":0},{"OBJECT_NAME":"ONEWEB-0445","OBJECT_ID":"2022-012T","EPOCH":"2025-11-19T06:53:30.984288","MEAN_MOTION":13.10377051,"ECCENTRICITY":0.00014283,"INCLINATION":87.8821,"RA_OF_ASC_NODE":78.0793,"ARG_OF_PERICENTER":95.8092,"MEAN_ANOMALY":264.3198,"EPHEMERIS_TYPE":0,"CLASSIFICATION_TYPE":"U","NORAD_CAT_ID":51639,"ELEMENT_SET_NO":999,"REV_AT_EPOCH":18185,"BSTAR":-0.00096644034,"MEAN_MOTION_DOT":-3.25e-6,"MEAN_MOTION_DDOT":0},{"OBJECT_NAME":"ONEWEB-0446","OBJECT_ID":"2022-012U","EPOCH":"2025-11-19T06:20:03.942528","MEAN_MOTION":13.10364825,"ECCENTRICITY":0.00014707,"INCLINATION":87.8802,"RA_OF_ASC_NODE":78.1371,"ARG_OF_PERICENTER":95.5291,"MEAN_ANOMALY":264.6004,"EPHEMERIS_TYPE":0,"CLASSIFICATION_TYPE":"U","NORAD_CAT_ID":51640,"ELEMENT_SET_NO":999,"REV_AT_EPOCH":18183,"BSTAR":-0.00086602599,"MEAN_MOTION_DOT":-2.9e-6,"MEAN_MOTION_DDOT":0},{"OBJECT_NAME":"ONEWEB-0448","OBJECT_ID":"2022-012V","EPOCH":"2025-11-19T06:27:14.022720","MEAN_MOTION":13.10365837,"ECCENTRICITY":0.00015806,"INCLINATION":87.8801,"RA_OF_ASC_NODE":78.1356,"ARG_OF_PERICENTER":106.3683,"MEAN_ANOMALY":253.7618,"EPHEMERIS_TYPE":0,"CLASSIFICATION_TYPE":"U","NORAD_CAT_ID":51641,"ELEMENT_SET_NO":999,"REV_AT_EPOCH":18180,"BSTAR":-0.001572087,"MEAN_MOTION_DOT":-5.36e-6,"MEAN_MOTION_DDOT":0}]
